OSCAR 7 (AO-7)          
1 07530U 74089B   18080.86890174 -.00000034  00000-0  67369-4 0  9996
2 07530 101.6769  49.5349 0012260 142.8051 271.6519 12.53631576983654
UOSAT 2 (UO-11)         
1 14781U 84021B   18080.69115091  .00000102  00000-0  18760-4 0  9994
2 14781  97.6607 120.5867 0008836  20.1216 340.0345 14.82988634831479
LUSAT (LO-19)           
1 20442U 90005G   18081.06625501  .00000012  00000-0  20579-4 0  9999
2 20442  98.6034  20.1278 0012699  50.9154 309.3157 14.32889730471415
ITAMSAT (IO-26)         
1 22826U 93061D   18080.93726234  .00000006  00000-0  20067-4 0  9997
2 22826  98.8478  55.5634 0008092 226.4514 133.5996 14.30355759277034
RADIO ROSTO (RS-15)     
1 23439U 94085A   18080.53645668 -.00000036  00000-0  19313-3 0  9997
2 23439  64.8146 130.5916 0160224 197.8629 272.1681 11.27566627956688
JAS-2 (FO-29)           
1 24278U 96046B   18080.82669626 -.00000014  00000-0  23515-4 0  9996
2 24278  98.5256 291.5784 0350024 337.7481  20.8781 13.53082311 66424
TECHSAT 1B (GO-32)      
1 25397U 98043D   18080.88177461 -.00000001  00000-0  18676-4 0  9993
2 25397  98.6423  22.8018 0000200 314.5718  45.5444 14.23641822 23309
ISS (ZARYA)             
1 25544U 98067A   18081.21898694  .00001699  00000-0  32887-4 0  9992
2 25544  51.6407  92.2675 0001807 228.6697 232.3362 15.54125069104994
PCSAT (NO-44)           
1 26931U 01043C   18080.47007610 -.00000020  00000-0  24013-4 0  9998
2 26931  67.0499  95.7463 0006613 282.9968  77.0394 14.30497740860005
SAUDISAT 1C (SO-50)     
1 27607U 02058C   18080.91183622  .00000054  00000-0  28474-4 0  9994
2 27607  64.5571 356.8008 0055081 348.7524  11.2342 14.75430953819950
CUTE-1 (CO-55)          
1 27844U 03031E   18080.92566315  .00000057  00000-0  45687-4 0  9992
2 27844  98.6894  90.8602 0008637 263.3249  96.6945 14.22100931763759
CUBESAT XI-IV (CO-57)   
1 27848U 03031J   18080.93112524  .00000036  00000-0  36521-4 0  9990
2 27848  98.6982  91.2336 0008527 274.6361  85.3842 14.21706503763632
MOZHAYETS 4 (RS-22)     
1 27939U 03042A   18081.20444652  .00000150  00000-0  35408-4 0  9994
2 27939  97.9753 222.6574 0014190  67.4001  55.9032 14.66667408774069
CUBESAT XI-V (CO-58)    
1 28895U 05043F   18080.90123901  .00000164  00000-0  40280-4 0  9995
2 28895  97.8955 235.9552 0016432 350.1126   9.9751 14.63520995660874
CUTE-1.7+APD II (CO-65) 
1 32785U 08021C   18080.83601433  .00000288  00000-0  36947-4 0  9992
2 32785  97.5519  97.1665 0012313 334.5252  25.5357 14.88080746536110
DELFI-C3 (DO-64)        
1 32789U 08021G   18080.93693633  .00001207  00000-0  87278-4 0  9995
2 32789  97.5227 137.9233 0011276 229.8125 130.2116 15.05839468538556
SEEDS II (CO-66)        
1 32791U 08021J   18080.86522412  .00000504  00000-0  57017-4 0  9993
2 32791  97.5427 102.3489 0012193 314.0152  46.0061 14.90494020536427
YUBILEINY (RS-30)       
1 32953U 08025A   18081.19666804  .00000009  00000-0 -78717-5 0  9990
2 32953  82.5005  66.7734 0020082  42.2630 317.9993 12.43082321445961
KKS-1 (KISEKI)          
1 33499U 09002H   18080.89139257  .00000150  00000-0  30220-4 0  9997
2 33499  98.3522 259.8363 0008674 203.3750 156.7065 14.75305505491885
SWISSCUBE               
1 35932U 09051B   18080.89429338  .00000157  00000-0  46475-4 0  9993
2 35932  98.5311 230.0214 0008831 115.9119 244.2989 14.56132903450696
BEESAT                  
1 35933U 09051C   18080.92781197  .00000142  00000-0  43070-4 0  9994
2 35933  98.5352 231.5471 0006883 125.9458 234.2378 14.56239989450766
ITUPSAT 1               
1 35935U 09051E   18080.86461993  .00000108  00000-0  35841-4 0  9997
2 35935  98.5463 231.7364 0009241 123.0303 237.1783 14.55420015450597
XIWANG-1 (HOPE-1)       
1 36122U 09072B   18080.91076462 -.00000036  00000-0  16670-4 0  9998
2 36122 100.0817  99.6087 0006990 318.1099  41.9480 13.16343897397063
JUGNU                   
1 37839U 11058B   18080.46944760  .00000341  00000-0  40128-4 0  9999
2 37839  19.9605 209.1508 0019077   0.0140  57.3017 14.12613081332846
SRMSAT                  
1 37841U 11058D   18080.49768543  .00000320  00000-0  30478-4 0  9992
2 37841  19.9715 256.3767 0011820 247.6575 136.5931 14.10601225332481
M-CUBED & EXP-1 PRIME   
1 37855U 11061F   18080.94385120  .00001890  00000-0  10437-3 0  9992
2 37855 101.7248  98.8295 0177207 340.4182  19.0280 15.04191230348067
STRAND-1                
1 39090U 13009E   18080.81371240  .00000044  00000-0  30686-4 0  9992
2 39090  98.5304 288.2914 0008922 189.9042 170.1969 14.35015860265290
SOMP                    
1 39134U 13015E   18080.31028116  .00001924  00000-0  10085-3 0  9992
2 39134  64.8658  51.1211 0021315 221.5581 138.3926 15.18916531271558
BEESAT-3                
1 39135U 13015F   18080.71691295  .00001682  00000-0  95395-4 0  9990
2 39135  64.8688  62.0384 0026480 246.7060 113.1278 15.16477957271387
BEESAT-2                
1 39136U 13015G   18080.45821659  .00001612  00000-0  93143-4 0  9993
2 39136  64.8689  65.4228 0027106 246.0107 113.8180 15.15953834271295
ZACUBE-1 (TSHEPISOSAT)  
1 39417U 13066B   18080.88287873  .00000304  00000-0  44633-4 0  9999
2 39417  97.5969 114.1407 0060663  81.5018 279.3064 14.80894077233875
GOMX 1                  
1 39430U 13066Q   18081.00315110  .00000192  00000-0  44272-4 0  9999
2 39430  97.6902  64.1987 0150254 245.5696 112.9767 14.59041083230433
EAGLE 2                 
1 39436U 13066W   18081.12974317  .00141613  00000-0  13629-2 0  9992
2 39436  97.7121 210.6026 0003517 197.9825 162.1311 15.66089309239655
CUBEBUG-2 (LO-74)       
1 39440U 13066AA  18081.00754061  .00000274  00000-0  45020-4 0  9995
2 39440  97.6073 101.3993 0081947 118.2229 242.7286 14.75628802233062
FUNCUBE-1 (AO-73)       
1 39444U 13066AE  18081.12695957  .00000353  00000-0  49948-4 0  9991
2 39444  97.5981 115.7865 0059788  76.5737 284.2131 14.81662316232769
UWE-3                   
1 39446U 13066AG  18080.77341871  .00000275  00000-0  43160-4 0  9999
2 39446  97.6008 107.2387 0071820 100.7212 260.2096 14.78162374232204
SPROUT                  
1 39770U 14029E   18081.23827138  .00000940  00000-0  11179-3 0  9999
2 39770  97.8716 183.0423 0010418 129.0342 231.1836 14.86727760207441
UNISAT-6                
1 40012U 14033C   18080.90412158  .00000230  00000-0  41759-4 0  9990
2 40012  97.8213 320.3466 0059708 119.7183 240.9986 14.73779483201848
DUCHIFAT-1              
1 40021U 14033M   18080.77267391  .00000605  00000-0  68230-4 0  9991
2 40021  97.9173 359.3344 0014394 104.5840 255.6975 14.90230231203930
FUNCUBE-3 (EO-79)       
1 40025U 14033R   18080.70160440  .00000399  00000-0  48762-4 0  9993
2 40025  97.9079 356.2711 0013857 110.2818 249.9890 14.88659044203267
NUDT-PHONESAT           
1 40900U 15049B   18081.20969150  .00002561  00000-0  11864-3 0  9999
2 40900  97.4436  90.4799 0012856 341.1783  18.8976 15.20940693138690
ZDPS 2A                 
1 40901U 15049C   18081.20702970  .00001221  00000-0  65212-4 0  9994
2 40901  97.4604  88.9168 0013306 347.3550  12.7348 15.16924820138472
ZDPS 2B                 
1 40902U 15049D   18081.16907567  .00001136  00000-0  61276-4 0  9990
2 40902  97.4497  87.0465 0013285 344.3762  15.7059 15.16726767138451
XW-2A                   
1 40903U 15049E   18081.19080210  .00002407  00000-0  62022-4 0  9993
2 40903  97.3945 115.1499 0013892 351.5139   8.5870 15.40145670140416
KAITUO 1A               
1 40904U 15049F   18081.23058277  .00000755  00000-0  43982-4 0  9995
2 40904  97.4585  86.4428 0014707 346.5863 146.0837 15.14925684138335
2015-049G               
1 40905U 15049G   18081.16853463  .00000574  00000-0  35268-4 0  9995
2 40905  97.4587  84.6037 0015142 337.7095  22.3477 15.13892482138252
XW-2C                   
1 40906U 15049H   18081.20804972  .00000894  00000-0  51210-4 0  9992
2 40906  97.4605  86.3006 0014381 337.6123  22.4480 15.15068373138323
XW-2D                   
1 40907U 15049J   18081.16891567  .00000976  00000-0  55417-4 0  9998
2 40907  97.4578  85.9701 0013685 335.8229  24.2359 15.15210545138328
LILACSAT 2              
1 40908U 15049K   18081.20413301  .00000501  00000-0  31594-4 0  9994
2 40908  97.4687  85.4739 0015341 335.8302  24.2208 15.13437989138211
XW-2F                   
1 40910U 15049M   18081.18428047  .00001474  00000-0  79305-4 0  9999
2 40910  97.4584  87.1435 0014295 331.4745  28.5704 15.16342553138271
XW-2B                   
1 40911U 15049N   18081.18329329  .00000965  00000-0  54879-4 0  9996
2 40911  97.4615  86.4883 0013605 336.3320  23.7285 15.15157782138226
KAITUO 1B               
1 40912U 15049P   18080.98043620  .00001725  00000-0  86680-4 0  9991
2 40912  97.4517  89.5470 0014375 320.8409 123.3796 15.18536847138438
TIANWANG 1C (TW-1C)     
1 40926U 15051B   18081.08120238  .00011219  00000-0  21917-3 0  9992
2 40926  97.1931 123.8633 0008373 230.5041 186.0305 15.47591389139834
TIANWANG 1A (TW-1A)     
1 40928U 15051D   18081.11020448  .00004617  00000-0  12473-3 0  9991
2 40928  97.1954 116.7995 0010125 279.6045 145.5190 15.38193040139394
LAPAN-A2 (IO-86)        
1 40931U 15052B   18080.18257300  .00000600  00000-0 -54613-5 0  9994
2 40931   5.9999  57.6242 0012712 204.5458 155.4094 14.76567589133976
E-ST@R-II               
1 41459U 16025D   18081.10624281  .00003362  00000-0  17832-3 0  9997
2 41459  98.1459 139.1435 0172722  80.5485 281.5243 15.04137060104331
AAUSAT 4                
1 41460U 16025E   18081.23107607  .00004324  00000-0  22599-3 0  9996
2 41460  98.1418 139.6493 0164434  76.8714 285.0810 15.05469581104405
NUSAT 1 (LO-87)         
1 41557U 16033B   18081.21219726  .00001798  00000-0  68192-4 0  9998
2 41557  97.4390 165.5858 0015523 104.1415 256.1550 15.28101791100871
BEESAT-4                
1 41619U 16040W   18080.75913257  .00001937  00000-0  88181-4 0  9998
2 41619  97.4245 145.0853 0012068 169.1120 191.0380 15.21848558 84794
ALSAT 1N                
1 41789U 16059G   18081.09799298  .00000108  00000-0  29685-4 0  9994
2 41789  98.1285 145.0673 0028590   4.6842 355.4636 14.64135595 79278
CAS-2T & KS-1Q          
1 41847U 16066G   18080.92055764  .00000069  00000-0  20450-4 0  9998
2 41847  98.7568 107.9497 0366721 143.6490 219.0191 14.37868747 71789
NAYIF-1 (EO-88)         
1 42017U 17008BX  18081.18118811  .00002057  00000-0  87487-4 0  9999
2 42017  97.4572 146.7294 0005586 340.0572  20.0446 15.24149723 60817
LILACSAT-1              
1 42725U 98067ME  18081.20854908  .00023283  00000-0  23444-3 0  9992
2 42725  51.6368  80.3952 0003263 277.2594  82.8030 15.65296008 46876
MAX VALIER SAT          
1 42778U 17036P   18081.15486329  .00001373  00000-0  64725-4 0  9993
2 42778  97.4140 142.2751 0013145  22.3849 337.7958 15.21109383 41278
FOX-1B (AO-91)          
1 43017U 17073E   18080.81265850  .00000567  00000-0  50298-4 0  9991
2 43017  97.7025  15.6230 0259774 195.7323 163.5708 14.77946738 18205
FOX-1D (AO-92)          
1 43137U 18004AC  18081.15244162  .00001429  00000-0  64698-4 0  9997
2 43137  97.5440 143.5781 0010788  51.7846 308.4360 15.22506817 10465
